{
  "type": "FeatureCollection",
  "features": [
    {
      "type": "Feature",
      "properties": {
        "norad_id": 43260,
        "name": "GAOFEN-1 03",
        "group": "resource",
        "lat": -28.186843708520076,
        "lon": -146.46594487463537,
        "alt_km": 647.8489948712577,
        "timestamp": "2025-12-06T05:40:08.894034+00:00",
        "meta_object_name": "GAOFEN-1 03",
        "meta_object_id": "2018-031B",
        "meta_epoch": "2025-12-05T07:34:58.886976",
        "meta_mean_motion": 14.76412741,
        "meta_eccentricity": 0.00024578,
        "meta_inclination": 98.081,
        "meta_ra_of_asc_node": 36.9802,
        "meta_arg_of_pericenter": 352.5349,
        "meta_mean_anomaly": 7.5823,
        "meta_ephemeris_type": 0,
        "meta_classification_type": "U",
        "meta_norad_cat_id": 43260,
        "meta_element_set_no": 999,
        "meta_rev_at_epoch": 41408,
        "meta_bstar": 0.00030556111,
        "meta_mean_motion_dot": 2.072e-05,
        "meta_mean_motion_ddot": 0,
        "tle_line1": "1 43260U 18031B   25339.31595934  .00002072  00000+0  30556-3 0  9991",
        "tle_line2": "2 43260  98.0810  36.9802 0002457 352.5349   7.5823 14.76412741414089"
      },
      "geometry": {
        "type": "Point",
        "coordinates": [
          -146.46594487463537,
          -28.186843708520076
        ]
      }
    },
    {
      "type": "Feature",
      "properties": {
        "norad_id": 43262,
        "name": "GAOFEN-1 04",
        "group": "resource",
        "lat": -22.41940497696671,
        "lon": 41.43002164737874,
        "alt_km": 645.8941086289424,
        "timestamp": "2025-12-06T05:40:08.894044+00:00",
        "meta_object_name": "GAOFEN-1 04",
        "meta_object_id": "2018-031D",
        "meta_epoch": "2025-12-05T07:00:00.495360",
        "meta_mean_motion": 14.76426055,
        "meta_eccentricity": 0.00012814,
        "meta_inclination": 98.082,
        "meta_ra_of_asc_node": 37.1242,
        "meta_arg_of_pericenter": 62.1967,
        "meta_mean_anomaly": 297.9372,
        "meta_ephemeris_type": 0,
        "meta_classification_type": "U",
        "meta_norad_cat_id": 43262,
        "meta_element_set_no": 999,
        "meta_rev_at_epoch": 41407,
        "meta_bstar": 0.00032039468,
        "meta_mean_motion_dot": 2.176e-05,
        "meta_mean_motion_ddot": 0,
        "tle_line1": "1 43262U 18031D   25339.29167240  .00002176  00000+0  32039-3 0  9998",
        "tle_line2": "2 43262  98.0820  37.1242 0001281  62.1967 297.9372 14.76426055414073"
      },
      "geometry": {
        "type": "Point",
        "coordinates": [
          41.43002164737874,
          -22.41940497696671
        ]
      }
    },
    {
      "type": "Feature",
      "properties": {
        "norad_id": 43437,
        "name": "SENTINEL-3B",
        "group": "resource",
        "lat": -45.26697692471084,
        "lon": -143.3009034476711,
        "alt_km": 809.8602415526884,
        "timestamp": "2025-12-06T05:40:08.894058+00:00",
        "meta_object_name": "SENTINEL-3B",
        "meta_object_id": "2018-039A",
        "meta_epoch": "2025-12-05T05:03:01.183104",
        "meta_mean_motion": 14.26738419,
        "meta_eccentricity": 0.00014811,
        "meta_inclination": 98.6276,
        "meta_ra_of_asc_node": 44.5032,
        "meta_arg_of_pericenter": 110.1055,
        "meta_mean_anomaly": 250.0285,
        "meta_ephemeris_type": 0,
        "meta_classification_type": "U",
        "meta_norad_cat_id": 43437,
        "meta_element_set_no": 999,
        "meta_rev_at_epoch": 39646,
        "meta_bstar": 0.00014710059,
        "meta_mean_motion_dot": 3.12e-06,
        "meta_mean_motion_ddot": 0,
        "tle_line1": "1 43437U 18039A   25339.21043036  .00000312  00000+0  14710-3 0  9994",
        "tle_line2": "2 43437  98.6276  44.5032 0001481 110.1055 250.0285 14.26738419396461"
      },
      "geometry": {
        "type": "Point",
        "coordinates": [
          -143.3009034476711,
          -45.26697692471084
        ]
      }
    },
    {
      "type": "Feature",
      "properties": {
        "norad_id": 43461,
        "name": "GAOFEN-5 01",
        "group": "resource",
        "lat": 31.602187210323507,
        "lon": 128.32599509322628,
        "alt_km": 690.9554106598871,
        "timestamp": "2025-12-06T05:40:08.894069+00:00",
        "meta_object_name": "GAOFEN-5 01",
        "meta_object_id": "2018-043A",
        "meta_epoch": "2025-12-04T20:06:25.044768",
        "meta_mean_motion": 14.60396165,
        "meta_eccentricity": 0.00014765,
        "meta_inclination": 98.4313,
        "meta_ra_of_asc_node": 301.6676,
        "meta_arg_of_pericenter": 6.2983,
        "meta_mean_anomaly": 353.8235,
        "meta_ephemeris_type": 0,
        "meta_classification_type": "U",
        "meta_norad_cat_id": 43461,
        "meta_element_set_no": 999,
        "meta_rev_at_epoch": 40332,
        "meta_bstar": 0.00021161206,
        "meta_mean_motion_dot": 9.75e-06,
        "meta_mean_motion_ddot": 0,
        "tle_line1": "1 43461U 18043A   25338.83778987  .00000975  00000+0  21161-3 0  9996",
        "tle_line2": "2 43461  98.4313 301.6676 0001476   6.2983 353.8235 14.60396165403325"
      },
      "geometry": {
        "type": "Point",
        "coordinates": [
          128.32599509322628,
          31.602187210323507
        ]
      }
    },
    {
      "type": "Feature",
      "properties": {
        "norad_id": 43484,
        "name": "GAOFEN-6",
        "group": "resource",
        "lat": 53.05797475483039,
        "lon": -124.76988193210337,
        "alt_km": 628.5032807535708,
        "timestamp": "2025-12-06T05:40:08.894080+00:00",
        "meta_object_name": "GAOFEN-6",
        "meta_object_id": "2018-048A",
        "meta_epoch": "2025-12-05T07:57:27.420768",
        "meta_mean_motion": 14.76544515,
        "meta_eccentricity": 0.00132959,
        "meta_inclination": 97.8041,
        "meta_ra_of_asc_node": 43.8471,
        "meta_arg_of_pericenter": 85.6589,
        "meta_mean_anomaly": 274.614,
        "meta_ephemeris_type": 0,
        "meta_classification_type": "U",
        "meta_norad_cat_id": 43484,
        "meta_element_set_no": 999,
        "meta_rev_at_epoch": 40478,
        "meta_bstar": 0.00010990088,
        "meta_mean_motion_dot": 7.18e-06,
        "meta_mean_motion_ddot": 0,
        "tle_line1": "1 43484U 18048A   25339.33156737  .00000718  00000+0  10990-3 0  9998",
        "tle_line2": "2 43484  97.8041  43.8471 0013295  85.6589 274.6140 14.76544515404781"
      },
      "geometry": {
        "type": "Point",
        "coordinates": [
          -124.76988193210337,
          53.05797475483039
        ]
      }
    },
    {
      "type": "Feature",
      "properties": {
        "norad_id": 43585,
        "name": "GAOFEN-11 01",
        "group": "resource",
        "lat": 37.13183248050878,
        "lon": 37.76693464185599,
        "alt_km": 415.3489324473867,
        "timestamp": "2025-12-06T05:40:08.894090+00:00",
        "meta_object_name": "GAOFEN-11 01",
        "meta_object_id": "2018-063A",
        "meta_epoch": "2025-12-05T07:48:04.912704",
        "meta_mean_motion": 15.48912165,
        "meta_eccentricity": 0.00048007,
        "meta_inclination": 97.1572,
        "meta_ra_of_asc_node": 42.3233,
        "meta_arg_of_pericenter": 346.0504,
        "meta_mean_anomaly": 14.0614,
        "meta_ephemeris_type": 0,
        "meta_classification_type": "U",
        "meta_norad_cat_id": 43585,
        "meta_element_set_no": 999,
        "meta_rev_at_epoch": 41027,
        "meta_bstar": 0.00042988747,
        "meta_mean_motion_dot": 0.00023144,
        "meta_mean_motion_ddot": 0,
        "tle_line1": "1 43585U 18063A   25339.32505686  .00023144  00000+0  42989-3 0  9998",
        "tle_line2": "2 43585  97.1572  42.3233 0004800 346.0504  14.0614 15.48912165410271"
      },
      "geometry": {
        "type": "Point",
        "coordinates": [
          37.76693464185599,
          37.13183248050878
        ]
      }
    },
    {
      "type": "Feature",
      "properties": {
        "norad_id": 43613,
        "name": "ICESAT-2",
        "group": "resource",
        "lat": -81.92430122247129,
        "lon": 44.682548988897565,
        "alt_km": 488.9534316477411,
        "timestamp": "2025-12-06T05:40:08.894100+00:00",
        "meta_object_name": "ICESAT-2",
        "meta_object_id": "2018-070A",
        "meta_epoch": "2025-12-05T03:22:44.661216",
        "meta_mean_motion": 15.2811074,
        "meta_eccentricity": 0.00013922,
        "meta_inclination": 92.0056,
        "meta_ra_of_asc_node": 238.6857,
        "meta_arg_of_pericenter": 165.9382,
        "meta_mean_anomaly": 194.1906,
        "meta_ephemeris_type": 0,
        "meta_classification_type": "U",
        "meta_norad_cat_id": 43613,
        "meta_element_set_no": 999,
        "meta_rev_at_epoch": 40282,
        "meta_bstar": 0.00080334681,
        "meta_mean_motion_dot": 0.0002204,
        "meta_mean_motion_ddot": 0,
        "tle_line1": "1 43613U 18070A   25339.14079469  .00022040  00000+0  80335-3 0  9994",
        "tle_line2": "2 43613  92.0056 238.6857 0001392 165.9382 194.1906 15.28110740402824"
      },
      "geometry": {
        "type": "Point",
        "coordinates": [
          44.682548988897565,
          -81.92430122247129
        ]
      }
    }
  ]
}